[
  {
    "COMMENT": "GENERATED VIA SPACETRACK.ORG API",
    "ORIGINATOR": "18 SPCS",
    "NORAD_CAT_ID": "43437",
    "OBJECT_NAME": "SENTINEL 3B",
    "OBJECT_TYPE": "PAYLOAD",
    "CLASSIFICATION_TYPE": "U",
    "INTLDES": "18039A",
    "EPOCH": "2023-04-16 18:22:47",
    "EPOCH_MICROSECONDS": "519328",
    "MEAN_MOTION": "14.26736061",
    "ECCENTRICITY": "0.0001421",
    "INCLINATION": "98.6317",
    "RA_OF_ASC_NODE": "174.7252",
    "ARG_OF_PERICENTER": "91.0097",
    "MEAN_ANOMALY": "269.1246",
    "EPHEMERIS_TYPE": "0",
    "ELEMENT_SET_NO": "999",
    "REV_AT_EPOCH": "25908",
    "BSTAR": "0.0001324",
    "MEAN_MOTION_DOT": "0.00000277",
    "MEAN_MOTION_DDOT": "0",
    "FILE": "3888799",
    "TLE_LINE0": "0 SENTINEL 3B",
    "TLE_LINE1": "1 43437U 18039A   23106.76582777  .00000277  00000-0  13240-3 0  9992",
    "TLE_LINE2": "2 43437  98.6317 174.7252 0001421  91.0097 269.1246 14.26736061259089",
    "OBJECT_ID": "2018-039A",
    "OBJECT_NUMBER": "43437",
    "SEMIMAJOR_AXIS": "7180.799",
    "PERIOD": "100.930",
    "APOGEE": "803.684",
    "PERIGEE": "801.643",
    "DECAYED": "0"
  },
  {
    "COMMENT": "GENERATED VIA SPACETRACK.ORG API",
    "ORIGINATOR": "18 SPCS",
    "NORAD_CAT_ID": "43437",
    "OBJECT_NAME": "SENTINEL 3B",
    "OBJECT_TYPE": "PAYLOAD",
    "CLASSIFICATION_TYPE": "U",
    "INTLDES": "18039A",
    "EPOCH": "2023-04-17 04:28:42",
    "EPOCH_MICROSECONDS": "856896",
    "MEAN_MOTION": "14.26736407",
    "ECCENTRICITY": "0.0001411",
    "INCLINATION": "98.6316",
    "RA_OF_ASC_NODE": "175.1403",
    "ARG_OF_PERICENTER": "90.7126",
    "MEAN_ANOMALY": "269.4216",
    "EPHEMERIS_TYPE": "0",
    "ELEMENT_SET_NO": "999",
    "REV_AT_EPOCH": "25914",
    "BSTAR": "0.0001394",
    "MEAN_MOTION_DOT": "0.00000294",
    "MEAN_MOTION_DDOT": "0",
    "FILE": "3889215",
    "TLE_LINE0": "0 SENTINEL 3B",
    "TLE_LINE1": "1 43437U 18039A   23107.18660714  .00000294  00000-0  13940-3 0  9993",
    "TLE_LINE2": "2 43437  98.6316 175.1403 0001411  90.7126 269.4216 14.26736407259140",
    "OBJECT_ID": "2018-039A",
    "OBJECT_NUMBER": "43437",
    "SEMIMAJOR_AXIS": "7180.797",
    "PERIOD": "100.930",
    "APOGEE": "803.676",
    "PERIGEE": "801.649",
    "DECAYED": "0"
  },
  {
    "COMMENT": "GENERATED VIA SPACETRACK.ORG API",
    "ORIGINATOR": "18 SPCS",
    "NORAD_CAT_ID": "43437",
    "OBJECT_NAME": "SENTINEL 3B",
    "OBJECT_TYPE": "PAYLOAD",
    "CLASSIFICATION_TYPE": "U",
    "INTLDES": "18039A",
    "EPOCH": "2023-04-17 21:18:35",
    "EPOCH_MICROSECONDS": "68032",
    "MEAN_MOTION": "14.26736867",
    "ECCENTRICITY": "0.0001397",
    "INCLINATION": "98.6316",
    "RA_OF_ASC_NODE": "175.8322",
    "ARG_OF_PERICENTER": "90.6094",
    "MEAN_ANOMALY": "269.5246",
    "EPHEMERIS_TYPE": "0",
    "ELEMENT_SET_NO": "999",
    "REV_AT_EPOCH": "25924",
    "BSTAR": "0.00014168",
    "MEAN_MOTION_DOT": "0.00000299",
    "MEAN_MOTION_DDOT": "0",
    "FILE": "3889391",
    "TLE_LINE0": "0 SENTINEL 3B",
    "TLE_LINE1": "1 43437U 18039A   23107.88790588  .00000299  00000-0  14168-3 0  9991",
    "TLE_LINE2": "2 43437  98.6316 175.8322 0001397  90.6094 269.5246 14.26736867259248",
    "OBJECT_ID": "2018-039A",
    "OBJECT_NUMBER": "43437",
    "SEMIMAJOR_AXIS": "7180.796",
    "PERIOD": "100.930",
    "APOGEE": "803.664",
    "PERIGEE": "801.658",
    "DECAYED": "0"
  },
  {
    "COMMENT": "GENERATED VIA SPACETRACK.ORG API",
    "ORIGINATOR": "18 SPCS",
    "NORAD_CAT_ID": "43437",
    "OBJECT_NAME": "SENTINEL 3B",
    "OBJECT_TYPE": "PAYLOAD",
    "CLASSIFICATION_TYPE": "U",
    "INTLDES": "18039A",
    "EPOCH": "2023-04-18 04:02:31",
    "EPOCH_MICROSECONDS": "942464",
    "MEAN_MOTION": "14.26737082",
    "ECCENTRICITY": "0.0001379",
    "INCLINATION": "98.6315",
    "RA_OF_ASC_NODE": "176.1089",
    "ARG_OF_PERICENTER": "90.5212",
    "MEAN_ANOMALY": "269.6127",
    "EPHEMERIS_TYPE": "0",
    "ELEMENT_SET_NO": "999",
    "REV_AT_EPOCH": "25928",
    "BSTAR": "0.0001422",
    "MEAN_MOTION_DOT": "0.000003",
    "MEAN_MOTION_DDOT": "0",
    "FILE": "3889684",
    "TLE_LINE0": "0 SENTINEL 3B",
    "TLE_LINE1": "1 43437U 18039A   23108.16842526  .00000300  00000-0  14220-3 0  9995",
    "TLE_LINE2": "2 43437  98.6315 176.1089 0001379  90.5212 269.6127 14.26737082259285",
    "OBJECT_ID": "2018-039A",
    "OBJECT_NUMBER": "43437",
    "SEMIMAJOR_AXIS": "7180.795",
    "PERIOD": "100.930",
    "APOGEE": "803.650",
    "PERIGEE": "801.670",
    "DECAYED": "0"
  },
  {
    "COMMENT": "GENERATED VIA SPACETRACK.ORG API",
    "ORIGINATOR": "18 SPCS",
    "NORAD_CAT_ID": "43437",
    "OBJECT_NAME": "SENTINEL 3B",
    "OBJECT_TYPE": "PAYLOAD",
    "CLASSIFICATION_TYPE": "U",
    "INTLDES": "18039A",
    "EPOCH": "2023-04-18 17:30:25",
    "EPOCH_MICROSECONDS": "687008",
    "MEAN_MOTION": "14.26737484",
    "ECCENTRICITY": "0.0001377",
    "INCLINATION": "98.6315",
    "RA_OF_ASC_NODE": "176.6623",
    "ARG_OF_PERICENTER": "90.1168",
    "MEAN_ANOMALY": "270.017",
    "EPHEMERIS_TYPE": "0",
    "ELEMENT_SET_NO": "999",
    "REV_AT_EPOCH": "25936",
    "BSTAR": "0.00014168",
    "MEAN_MOTION_DOT": "0.00000299",
    "MEAN_MOTION_DDOT": "0",
    "FILE": "3889987",
    "TLE_LINE0": "0 SENTINEL 3B",
    "TLE_LINE1": "1 43437U 18039A   23108.72946397  .00000299  00000-0  14168-3 0  9996",
    "TLE_LINE2": "2 43437  98.6315 176.6623 0001377  90.1168 270.0170 14.26737484259367",
    "OBJECT_ID": "2018-039A",
    "OBJECT_NUMBER": "43437",
    "SEMIMAJOR_AXIS": "7180.794",
    "PERIOD": "100.930",
    "APOGEE": "803.648",
    "PERIGEE": "801.670",
    "DECAYED": "0"
  },
  {
    "COMMENT": "GENERATED VIA SPACETRACK.ORG API",
    "ORIGINATOR": "18 SPCS",
    "NORAD_CAT_ID": "43437",
    "OBJECT_NAME": "SENTINEL 3B",
    "OBJECT_TYPE": "PAYLOAD",
    "CLASSIFICATION_TYPE": "U",
    "INTLDES": "18039A",
    "EPOCH": "2023-04-19 03:36:20",
    "EPOCH_MICROSECONDS": "993472",
    "MEAN_MOTION": "14.26737865",
    "ECCENTRICITY": "0.0001369",
    "INCLINATION": "98.6314",
    "RA_OF_ASC_NODE": "177.0774",
    "ARG_OF_PERICENTER": "89.9362",
    "MEAN_ANOMALY": "270.1975",
    "EPHEMERIS_TYPE": "0",
    "ELEMENT_SET_NO": "999",
    "REV_AT_EPOCH": "25942",
    "BSTAR": "0.00015063",
    "MEAN_MOTION_DOT": "0.00000321",
    "MEAN_MOTION_DDOT": "0",
    "FILE": "3890383",
    "TLE_LINE0": "0 SENTINEL 3B",
    "TLE_LINE1": "1 43437U 18039A   23109.15024298  .00000321  00000-0  15063-3 0  9992",
    "TLE_LINE2": "2 43437  98.6314 177.0774 0001369  89.9362 270.1975 14.26737865259425",
    "OBJECT_ID": "2018-039A",
    "OBJECT_NUMBER": "43437",
    "SEMIMAJOR_AXIS": "7180.793",
    "PERIOD": "100.930",
    "APOGEE": "803.641",
    "PERIGEE": "801.675",
    "DECAYED": "0"
  },
  {
    "COMMENT": "GENERATED VIA SPACETRACK.ORG API",
    "ORIGINATOR": "18 SPCS",
    "NORAD_CAT_ID": "43437",
    "OBJECT_NAME": "SENTINEL 3B",
    "OBJECT_TYPE": "PAYLOAD",
    "CLASSIFICATION_TYPE": "U",
    "INTLDES": "18039A",
    "EPOCH": "2023-04-19 17:04:14",
    "EPOCH_MICROSECONDS": "711232",
    "MEAN_MOTION": "14.26738263",
    "ECCENTRICITY": "0.0001367",
    "INCLINATION": "98.6313",
    "RA_OF_ASC_NODE": "177.6308",
    "ARG_OF_PERICENTER": "89.467",
    "MEAN_ANOMALY": "270.6667",
    "EPHEMERIS_TYPE": "0",
    "ELEMENT_SET_NO": "999",
    "REV_AT_EPOCH": "25950",
    "BSTAR": "0.00014861",
    "MEAN_MOTION_DOT": "0.00000316",
    "MEAN_MOTION_DDOT": "0",
    "FILE": "3890497",
    "TLE_LINE0": "0 SENTINEL 3B",
    "TLE_LINE1": "1 43437U 18039A   23109.71128138  .00000316  00000-0  14861-3 0  9991",
    "TLE_LINE2": "2 43437  98.6313 177.6308 0001367  89.4670 270.6667 14.26738263259503",
    "OBJECT_ID": "2018-039A",
    "OBJECT_NUMBER": "43437",
    "SEMIMAJOR_AXIS": "7180.791",
    "PERIOD": "100.930",
    "APOGEE": "803.638",
    "PERIGEE": "801.675",
    "DECAYED": "0"
  },
  {
    "COMMENT": "GENERATED VIA SPACETRACK.ORG API",
    "ORIGINATOR": "18 SPCS",
    "NORAD_CAT_ID": "43437",
    "OBJECT_NAME": "SENTINEL 3B",
    "OBJECT_TYPE": "PAYLOAD",
    "CLASSIFICATION_TYPE": "U",
    "INTLDES": "18039A",
    "EPOCH": "2023-04-19 17:04:14",
    "EPOCH_MICROSECONDS": "711232",
    "MEAN_MOTION": "14.26738263",
    "ECCENTRICITY": "0.0001367",
    "INCLINATION": "98.6313",
    "RA_OF_ASC_NODE": "177.6308",
    "ARG_OF_PERICENTER": "89.467",
    "MEAN_ANOMALY": "270.6667",
    "EPHEMERIS_TYPE": "0",
    "ELEMENT_SET_NO": "999",
    "REV_AT_EPOCH": "25950",
    "BSTAR": "0.00014861",
    "MEAN_MOTION_DOT": "0.00000316",
    "MEAN_MOTION_DDOT": "0",
    "FILE": "3890520",
    "TLE_LINE0": "0 SENTINEL 3B",
    "TLE_LINE1": "1 43437U 18039A   23109.71128138  .00000316  00000-0  14861-3 0  9991",
    "TLE_LINE2": "2 43437  98.6313 177.6308 0001367  89.4670 270.6667 14.26738263259503",
    "OBJECT_ID": "2018-039A",
    "OBJECT_NUMBER": "43437",
    "SEMIMAJOR_AXIS": "7180.791",
    "PERIOD": "100.930",
    "APOGEE": "803.638",
    "PERIGEE": "801.675",
    "DECAYED": "0"
  }
]